{
  "norad_id": 53702,
  "name": "STARLINK-4724",
  "history": [
    {
      "epoch": "2026-03-28T21:14:03.276960",
      "apogee_km": 540.5564848833737,
      "perigee_km": 538.9902699739241,
      "latitude_deg": 50.19969231433637,
      "longitude_deg": -4.863025600090623,
      "semi_major_axis_km": 6917.910377428649,
      "eccentricity": 0.0001132,
      "inclination_deg": 53.2163,
      "raan_deg": 142.8539,
      "arg_perigee_deg": 69.0117,
      "mean_anomaly_deg": 291.0996,
      "mean_motion_rev_day": 15.08830189
    }
  ]
}